[{"OBJECT_NAME":"ONEWEB-0683","OBJECT_ID":"2023-068K","EPOCH":"2025-12-23T05:03:38.414592","MEAN_MOTION":13.15548568,"ECCENTRICITY":0.00015239,"INCLINATION":87.9011,"RA_OF_ASC_NODE":294.2988,"ARG_OF_PERICENTER":82.8908,"MEAN_ANOMALY":277.2396,"EPHEMERIS_TYPE":0,"CLASSIFICATION_TYPE":"U","NORAD_CAT_ID":56719,"ELEMENT_SET_NO":999,"REV_AT_EPOCH":12628,"BSTAR":-0.00048205287,"MEAN_MOTION_DOT":-1.69e-6,"MEAN_MOTION_DDOT":0},{"OBJECT_NAME":"ONEWEB-0684","OBJECT_ID":"2023-068L","EPOCH":"2025-12-23T01:36:00.354528","MEAN_MOTION":13.15548301,"ECCENTRICITY":0.00022738,"INCLINATION":87.9015,"RA_OF_ASC_NODE":294.322,"ARG_OF_PERICENTER":38.6042,"MEAN_ANOMALY":321.5251,"EPHEMERIS_TYPE":0,"CLASSIFICATION_TYPE":"U","NORAD_CAT_ID":56720,"ELEMENT_SET_NO":999,"REV_AT_EPOCH":12609,"BSTAR":0.00014608117,"MEAN_MOTION_DOT":6.8e-7,"MEAN_MOTION_DDOT":0},{"OBJECT_NAME":"ONEWEB-0686","OBJECT_ID":"2023-068M","EPOCH":"2025-12-23T04:43:13.539936","MEAN_MOTION":13.15706352,"ECCENTRICITY":0.00013417,"INCLINATION":87.9038,"RA_OF_ASC_NODE":263.8523,"ARG_OF_PERICENTER":67.7655,"MEAN_ANOMALY":292.3617,"EPHEMERIS_TYPE":0,"CLASSIFICATION_TYPE":"U","NORAD_CAT_ID":56721,"ELEMENT_SET_NO":999,"REV_AT_EPOCH":12855,"BSTAR":0.0005099868,"MEAN_MOTION_DOT":2.05e-6,"MEAN_MOTION_DDOT":0},{"OBJECT_NAME":"ONEWEB-0694","OBJECT_ID":"2023-068N","EPOCH":"2025-12-23T04:50:06.997632","MEAN_MOTION":13.1659533,"ECCENTRICITY":0.00012445,"INCLINATION":87.9061,"RA_OF_ASC_NODE":263.7819,"ARG_OF_PERICENTER":86.0823,"MEAN_ANOMALY":274.045,"EPHEMERIS_TYPE":0,"CLASSIFICATION_TYPE":"U","NORAD_CAT_ID":56722,"ELEMENT_SET_NO":999,"REV_AT_EPOCH":12861,"BSTAR":7.3199085e-5,"MEAN_MOTION_DOT":4.1e-7,"MEAN_MOTION_DDOT":0},{"OBJECT_NAME":"ONEWEB-0696","OBJECT_ID":"2023-068P","EPOCH":"2025-12-23T06:02:57.334272","MEAN_MOTION":13.15548654,"ECCENTRICITY":0.00019985,"INCLINATION":87.9,"RA_OF_ASC_NODE":294.3369,"ARG_OF_PERICENTER":68.1893,"MEAN_ANOMALY":291.945,"EPHEMERIS_TYPE":0,"CLASSIFICATION_TYPE":"U","NORAD_CAT_ID":56723,"ELEMENT_SET_NO":999,"REV_AT_EPOCH":12623,"BSTAR":-0.00069934549,"MEAN_MOTION_DOT":-2.5e-6,"MEAN_MOTION_DDOT":0},{"OBJECT_NAME":"ONEWEB-0703","OBJECT_ID":"2023-068Q","EPOCH":"2025-12-22T21:09:01.936224","MEAN_MOTION":13.15547886,"ECCENTRICITY":0.000276,"INCLINATION":87.8997,"RA_OF_ASC_NODE":294.3925,"ARG_OF_PERICENTER":66.8635,"MEAN_ANOMALY":293.2786,"EPHEMERIS_TYPE":0,"CLASSIFICATION_TYPE":"U","NORAD_CAT_ID":56724,"ELEMENT_SET_NO":999,"REV_AT_EPOCH":12607,"BSTAR":-0.0010066,"MEAN_MOTION_DOT":-3.66e-6,"MEAN_MOTION_DDOT":0},{"OBJECT_NAME":"ONEWEB-0721","OBJECT_ID":"2023-068R","EPOCH":"2025-12-23T03:44:18.083904","MEAN_MOTION":13.22454869,"ECCENTRICITY":0.0001463,"INCLINATION":86.6803,"RA_OF_ASC_NODE":141.6756,"ARG_OF_PERICENTER":99.588,"MEAN_ANOMALY":260.5419,"EPHEMERIS_TYPE":0,"CLASSIFICATION_TYPE":"U","NORAD_CAT_ID":56725,"ELEMENT_SET_NO":999,"REV_AT_EPOCH":13467,"BSTAR":2.1239387e-5,"MEAN_MOTION_DOT":2.3e-7,"MEAN_MOTION_DDOT":0},{"OBJECT_NAME":"ONEWEB-0015","OBJECT_ID":"2024-188A","EPOCH":"2025-12-23T05:11:47.067936","MEAN_MOTION":13.11418214,"ECCENTRICITY":0.00022185,"INCLINATION":87.8847,"RA_OF_ASC_NODE":56.14,"ARG_OF_PERICENTER":112.6063,"MEAN_ANOMALY":247.5299,"EPHEMERIS_TYPE":0,"CLASSIFICATION_TYPE":"U","NORAD_CAT_ID":61594,"ELEMENT_SET_NO":999,"REV_AT_EPOCH":6139,"BSTAR":0.00026722152,"MEAN_MOTION_DOT":1.07e-6,"MEAN_MOTION_DDOT":0},{"OBJECT_NAME":"ONEWEB-0687","OBJECT_ID":"2024-188B","EPOCH":"2025-12-23T03:14:06.897120","MEAN_MOTION":13.17648165,"ECCENTRICITY":0.00018034,"INCLINATION":87.909,"RA_OF_ASC_NODE":40.9001,"ARG_OF_PERICENTER":117.4017,"MEAN_ANOMALY":242.7298,"EPHEMERIS_TYPE":0,"CLASSIFICATION_TYPE":"U","NORAD_CAT_ID":61595,"ELEMENT_SET_NO":999,"REV_AT_EPOCH":6271,"BSTAR":1.3673327e-5,"MEAN_MOTION_DOT":1.8e-7,"MEAN_MOTION_DDOT":0},{"OBJECT_NAME":"ONEWEB-0688","OBJECT_ID":"2024-188C","EPOCH":"2025-12-23T03:55:25.900608","MEAN_MOTION":13.17648314,"ECCENTRICITY":0.0002863,"INCLINATION":87.9085,"RA_OF_ASC_NODE":40.8944,"ARG_OF_PERICENTER":118.889,"MEAN_ANOMALY":241.2529,"EPHEMERIS_TYPE":0,"CLASSIFICATION_TYPE":"U","NORAD_CAT_ID":61596,"ELEMENT_SET_NO":999,"REV_AT_EPOCH":6271,"BSTAR":0.00010474192,"MEAN_MOTION_DOT":5.4e-7,"MEAN_MOTION_DDOT":0},{"OBJECT_NAME":"ONEWEB-0689","OBJECT_ID":"2024-188D","EPOCH":"2025-12-23T04:10:44.878656","MEAN_MOTION":13.11413583,"ECCENTRICITY":0.00016275,"INCLINATION":87.8835,"RA_OF_ASC_NODE":56.0827,"ARG_OF_PERICENTER":115.308,"MEAN_ANOMALY":244.8216,"EPHEMERIS_TYPE":0,"CLASSIFICATION_TYPE":"U","NORAD_CAT_ID":61597,"ELEMENT_SET_NO":999,"REV_AT_EPOCH":6138,"BSTAR":0.00072429156,"MEAN_MOTION_DOT":2.69e-6,"MEAN_MOTION_DDOT":0},{"OBJECT_NAME":"ONEWEB-0690","OBJECT_ID":"2024-188E","EPOCH":"2025-12-23T04:25:23.110464","MEAN_MOTION":13.11413451,"ECCENTRICITY":0.00021913,"INCLINATION":87.886,"RA_OF_ASC_NODE":56.0959,"ARG_OF_PERICENTER":85.2946,"MEAN_ANOMALY":274.8432,"EPHEMERIS_TYPE":0,"CLASSIFICATION_TYPE":"U","NORAD_CAT_ID":61598,"ELEMENT_SET_NO":999,"REV_AT_EPOCH":6156,"BSTAR":-0.00073270588,"MEAN_MOTION_DOT":-2.47e-6,"MEAN_MOTION_DDOT":0},{"OBJECT_NAME":"ONEWEB-0691","OBJECT_ID":"2024-188F","EPOCH":"2025-12-23T04:18:03.729312","MEAN_MOTION":13.11412084,"ECCENTRICITY":0.00020672,"INCLINATION":87.8831,"RA_OF_ASC_NODE":55.9959,"ARG_OF_PERICENTER":113.4638,"MEAN_ANOMALY":246.6708,"EPHEMERIS_TYPE":0,"CLASSIFICATION_TYPE":"U","NORAD_CAT_ID":61599,"ELEMENT_SET_NO":999,"REV_AT_EPOCH":6141,"BSTAR":4.2221358e-5,"MEAN_MOTION_DOT":2.8e-7,"MEAN_MOTION_DDOT":0},{"OBJECT_NAME":"ONEWEB-0692","OBJECT_ID":"2024-188G","EPOCH":"2025-12-23T04:47:20.814144","MEAN_MOTION":13.11416491,"ECCENTRICITY":9.243e-5,"INCLINATION":87.8843,"RA_OF_ASC_NODE":56.1369,"ARG_OF_PERICENTER":84.6418,"MEAN_ANOMALY":275.4816,"EPHEMERIS_TYPE":0,"CLASSIFICATION_TYPE":"U","NORAD_CAT_ID":61600,"ELEMENT_SET_NO":999,"REV_AT_EPOCH":6140,"BSTAR":-0.0016644481,"MEAN_MOTION_DOT":-5.77e-6,"MEAN_MOTION_DDOT":0},{"OBJECT_NAME":"ONEWEB-0693","OBJECT_ID":"2024-188H","EPOCH":"2025-12-23T04:12:26.554176","MEAN_MOTION":13.17649978,"ECCENTRICITY":0.00025082,"INCLINATION":87.9092,"RA_OF_ASC_NODE":40.9121,"ARG_OF_PERICENTER":87.6301,"MEAN_ANOMALY":272.5117,"EPHEMERIS_TYPE":0,"CLASSIFICATION_TYPE":"U","NORAD_CAT_ID":61601,"ELEMENT_SET_NO":999,"REV_AT_EPOCH":6270,"BSTAR":6.5063165e-5,"MEAN_MOTION_DOT":3.8e-7,"MEAN_MOTION_DDOT":0},{"OBJECT_NAME":"ONEWEB-0695","OBJECT_ID":"2024-188J","EPOCH":"2025-12-23T04:13:11.175456","MEAN_MOTION":13.11413461,"ECCENTRICITY":0.00012374,"INCLINATION":87.8846,"RA_OF_ASC_NODE":56.1306,"ARG_OF_PERICENTER":109.2858,"MEAN_ANOMALY":250.8404,"EPHEMERIS_TYPE":0,"CLASSIFICATION_TYPE":"U","NORAD_CAT_ID":61602,"ELEMENT_SET_NO":999,"REV_AT_EPOCH":6139,"BSTAR":0.00050505748,"MEAN_MOTION_DOT":1.92e-6,"MEAN_MOTION_DDOT":0},{"OBJECT_NAME":"ONEWEB-0697","OBJECT_ID":"2024-188K","EPOCH":"2025-12-23T04:59:33.637344","MEAN_MOTION":13.11417607,"ECCENTRICITY":0.00010511,"INCLINATION":87.8849,"RA_OF_ASC_NODE":56.1144,"ARG_OF_PERICENTER":84.9214,"MEAN_ANOMALY":275.2034,"EPHEMERIS_TYPE":0,"CLASSIFICATION_TYPE":"U","NORAD_CAT_ID":61603,"ELEMENT_SET_NO":999,"REV_AT_EPOCH":6138,"BSTAR":-0.0010493396,"MEAN_MOTION_DOT":-3.59e-6,"MEAN_MOTION_DDOT":0}]
